satname,norad_id,inclination_deg,eccentricity,mean_motion_rev_per_day,perigee_km,apogee_km,l1,l2
STARLINK-1234,45190,53.0411,0.0007681,15.71056678,350.7034312198957,361.0482217239214,1 45190U 20012N   26134.01429677  .00048928  00000+0  38363-3 0  9992,2 45190  53.0411   3.5760 0007681 140.8313 219.3262 15.71056678346125
STARLINK-1269,45197,53.1573,0.0002883,15.32970542,464.9817516767889,468.92863183455484,1 45197U 20012V   26135.13807035  .00037024  00000+0  11522-2 0  9993,2 45197  53.1573  90.5568 0002883  66.3760 293.7544 15.32970542345097
STARLINK-1154,45198,53.0429,0.0002828,15.56469232,395.96885415789984,399.80137226513125,1 45198U 20012W   26135.16442260  .00038525  00000+0  53878-3 0  9990,2 45198  53.0429  50.2763 0002828  45.1734 314.9506 15.56469232345619
STARLINK-1199,45201,53.1574,0.0002687,15.32942223,465.20019501702154,468.8787928648644,1 45201U 20012Z   26135.23898206  .00025615  00000+0  80261-3 0  9990,2 45201  53.1574  74.3477 0002687 100.8382 259.2923 15.32942223345351
STARLINK-1209,45206,53.0407,0.0011063,15.62276037,373.6064914757899,388.56194434253666,1 45206U 20012AE  26133.95834596  .00080059  00000+0  88551-3 0  9997,2 45206  53.0407  16.9284 0011063 133.4138 226.7797 15.62276037345081
STARLINK-1231,45212,53.0372,0.0004081,15.26309279,484.05512752539744,489.65833540902076,1 45212U 20012AL  26135.24821585  .00022258  00000+0  85681-3 0  9990,2 45212  53.0372  68.7526 0004081  32.7217 327.4033 15.26309279345373
STARLINK-1271,45217,53.1573,0.0002307,15.33029947,465.1992368254723,468.3574807720224,1 45217U 20012AR  26135.23896907  .00041120  00000+0  12754-2 0  9993,2 45217  53.1573  74.4945 0002307 105.1294 254.9963 15.33029947345353
STARLINK-1191,45222,53.1569,0.0004859,15.36750044,452.4067422016469,459.04789154478476,1 45222U 20012AW  26135.08288866  .00034630  00000+0  95660-3 0  9997,2 45222  53.1569  48.8803 0004859 104.8506 255.3036 15.36750044345705
STARLINK-1212,45223,53.0419,0.0004362,15.64714652,371.1142326991021,377.00484896132275,1 45223U 20012AX  26135.27887787  .00027874  00000+0  28627-3 0  9997,2 45223  53.0419  26.3423 0004362  82.1481 278.0029 15.64714652346023
STARLINK-1215,45225,53.1571,0.0002396,15.33170369,464.7204635054104,468.0003466619264,1 45225U 20012AZ  26134.78339709  .00024956  00000+0  77676-3 0  9996,2 45225  53.1571  50.9048 0002396 124.4413 235.6816 15.33170369345604
STARLINK-1221,45227,53.0656,0.000261,15.44036908,432.43137579195445,435.98742061181656,1 45227U 20012BB  26133.22747176  .00009118  00000+0  20553-3 0  9992,2 45227  53.0656 323.2634 0002610 178.8639 181.2373 15.44036908346672
STARLINK-1222,45228,53.0546,0.0001035,15.53534926,405.71256411992,407.116966335323,1 45228U 20012BC  26135.09592523  .00025607  00000+0  40182-3 0  9995,2 45228  53.0546  23.4410 0001035  65.1674 294.9444 15.53534926345931
STARLINK-1226,45229,53.1572,0.0003258,15.41482171,439.51225480852736,443.95608286214065,1 45229U 20012BD  26135.14044360  .00036230  00000+0  85709-3 0  9991,2 45229  53.1572  46.7297 0003258 110.8228 249.3126 15.41482171345634
STARLINK-1227,45230,53.1557,0.000407,15.41599334,438.6130731134117,444.16416696812576,1 45230U 20012BE  26135.15210112  .00031701  00000+0  74861-3 0  9999,2 45230  53.1557  46.8070 0004070 115.7747 244.3680 15.41599334345755
STARLINK-1246,45235,53.1563,0.000328,15.33106783,464.30459808493106,468.79471253081374,1 45235U 20012BK  26135.27606600  .00033024  00000+0  10251-2 0  9990,2 45235  53.1563  89.5518 0003280  99.1997 260.9377 15.33106783345178
STARLINK-1270,45237,53.0436,0.000412,15.57921493,390.8834978073319,396.4634696459225,1 45237U 20012BM  26135.07707283  .00061300  00000+0  80589-3 0  9999,2 45237  53.0436  27.7050 0004120 108.0395 252.1065 15.57921493345984
STARLINK-1279,45360,53.0354,0.0009259,15.71224387,349.16205677589005,361.6312143622363,1 45360U 20019A   26135.26528318  .00042440  00000+0  33106-3 0  9991,2 45360  53.0354 132.1790 0009259  32.2424 327.9157 15.71224387341096
STARLINK-1301,45361,53.0366,0.0006519,15.73455406,344.64465801829465,353.41553848099284,1 45361U 20019B   26135.27744840  .00053108  00000+0  37585-3 0  9991,2 45361  53.0366 135.1504 0006519  49.7763 310.3825 15.73455406341066
STARLINK-1262,45366,53.155,0.000292,15.32103596,467.5376398101689,471.5366815199959,1 45366U 20019G   26135.23129378  .00020887  00000+0  67440-3 0  9996,2 45366  53.1550 216.0504 0002920   1.4452 358.6558 15.32103596339945
STARLINK-1273,45367,53.0459,0.0005711,15.53861587,401.5897612151575,409.3379901353537,1 45367U 20019H   26134.40300103  .00051873  00000+0  79394-3 0  9992,2 45367  53.0459 199.8691 0005711 334.3461  25.7265 15.53861587340085
STARLINK-1277,45369,53.0457,0.0006579,15.60152736,382.76457585721255,391.66642667838096,1 45369U 20019K   26135.16293649  .00096185  00000+0  11531-2 0  9997,2 45369  53.0457 191.3603 0006579 327.1408  32.9195 15.60152736340279
STARLINK-1281,45370,53.1571,0.0004013,15.3301988,464.0614482298706,469.55520134754715,1 45370U 20019L   26134.67029758  .00024183  00000+0  75659-3 0  9993,2 45370  53.1571 218.4419 0004013 358.6249   1.4741 15.33019880339861
STARLINK-1300,45374,53.1592,0.0004146,15.33289651,463.16784138075855,468.84300427776907,1 45374U 20019Q   26135.21049237  .00019771  00000+0  61578-3 0  9994,2 45374  53.1592 215.8956 0004146   8.2439 351.8630 15.33289651339944
STARLINK-1302,45375,53.0456,0.0004854,15.6497099,370.04503476483114,376.59935134945135,1 45375U 20019R   26135.15505007  .00030848  00000+0  31289-3 0  9994,2 45375  53.0456 188.1576 0004854 354.8283   5.2680 15.64970990340311
STARLINK-1304,45376,53.0446,0.0005701,15.59434207,385.43537731166634,393.1516015557181,1 45376U 20019S   26134.44085861  .00129863  00000+0  15915-2 0  9990,2 45376  53.0446 192.1079 0005701 352.8408   7.2522 15.59434207340196
STARLINK-1305,45377,53.0373,0.0010502,15.65286144,365.32650813368036,379.50536952639777,1 45377U 20019T   26135.28722418  .00027071  00000+0  27143-3 0  9995,2 45377  53.0373 167.9498 0010502 359.7386   0.3621 15.65286144340610
STARLINK-1319,45379,53.0398,0.0005271,15.73536718,345.2525791791222,352.3441144217186,1 45379U 20019V   26135.28139672  .00039952  00000+0  28340-3 0  9992,2 45379  53.0398 160.7137 0005271  17.7163 342.4038 15.73536718340718
STARLINK-1266,45383,53.0444,0.0005612,15.55710521,396.2840787596215,403.8919585205431,1 45383U 20019Z   26135.29768487  .00041606  00000+0  59734-3 0  9990,2 45383  53.0444 172.9655 0005612 344.2296  15.8539 15.55710521340532
STARLINK-1267,45384,53.0452,0.0007781,15.6170603,377.46818671007077,387.98944609355476,1 45384U 20019AA  26135.29644180  .00056094  00000+0  63889-3 0  9997,2 45384  53.0452 164.5487 0007781  24.7412 335.3973 15.61706030340653
STARLINK-1272,45386,53.0391,0.0008671,15.66967026,361.73832229837626,373.4367577957264,1 45386U 20019AC  26135.25973583  .00030764  00000+0  28781-3 0  9995,2 45386  53.0391 144.3184 0008671  18.4946 341.6383 15.66967026340933
STARLINK-1274,45387,53.0212,0.0009588,15.57625272,388.03837305825346,401.025643148193,1 45387U 20019AD  26135.28298302  .00050326  00000+0  67004-3 0  9995,2 45387  53.0212 141.9673 0009588  39.9463 320.2252 15.57625272340967
STARLINK-1280,45388,53.0367,0.0006017,15.74241272,342.7447079393878,350.8374864115285,1 45388U 20019AE  26135.30242464  .00043415  00000+0  29824-3 0  9996,2 45388  53.0367 153.1057 0006017  24.9088 335.2220 15.74241272340808
STARLINK-1283,45389,53.0387,0.0004491,15.68221926,360.96052694695663,367.01630399513215,1 45389U 20019AF  26135.29671267  .00032374  00000+0  28793-3 0  9998,2 45389  53.0387 143.4452 0004491  42.6957 317.4407 15.68221926340950
STARLINK-1284,45390,53.04,0.0004888,15.67282631,363.38504741113957,369.9787823823426,1 45390U 20019AG  26135.29793329  .00029023  00000+0  26877-3 0  9992,2 45390  53.0400 167.1337 0004888 333.2708  26.8054 15.67282631340617
STARLINK-1297,45395,53.041,0.0006682,15.6573188,366.62483983020775,375.6445665343408,1 45395U 20019AM  26135.28851126  .00027166  00000+0  26799-3 0  9995,2 45395  53.0410 165.9343 0006682 342.0809  17.9969 15.65731880339819
STARLINK-1307,45397,53.052,0.0002214,15.55000257,400.65072634434546,403.6530382614292,1 45397U 20019AP  26135.30196271  .00019027  00000+0  28514-3 0  9997,2 45397  53.0520 169.8290 0002214  29.6368 330.4767 15.55000257340404
STARLINK-1255,45399,53.035,0.0006663,15.62561127,375.75892293305697,384.7651654993788,1 45399U 20019AR  26135.27911319  .00057942  00000+0  63831-3 0  9992,2 45399  53.0350 139.3252 0006663  30.0033 330.1361 15.62561127340812
STARLINK-1260,45404,53.1555,0.0005542,15.35597747,455.3563758287828,462.9348198602338,1 45404U 20019AW  26135.27667467  .00025008  00000+0  72065-3 0  9998,2 45404  53.1555 178.7822 0005542   6.7177 353.3900 15.35597747340184
STARLINK-1263,45405,53.1568,0.0003947,15.33096692,463.878080551337,469.28129990660364,1 45405U 20019AX  26135.27158660  .00021736  00000+0  67979-3 0  9991,2 45405  53.1568 179.6206 0003947  26.7912 333.3293 15.33096692340174
STARLINK-1265,45406,53.1555,0.0005443,15.35927176,454.4469119713085,461.8889134993133,1 45406U 20019AY  26135.27488068  .00040782  00000+0  11537-2 0  9990,2 45406  53.1555 178.8423 0005443 357.7525   2.3453 15.35927176340187
STARLINK-1278,45408,53.0391,0.0006871,15.66516813,364.24407233519923,373.5158230247007,1 45408U 20019BA  26135.26450079  .00027810  00000+0  26571-3 0  9994,2 45408  53.0391 165.1435 0006871   2.8218 357.2835 15.66516813340363
STARLINK-1296,45412,53.1562,0.0006028,15.36138247,453.4211291285774,461.66222334064514,1 45412U 20019BE  26135.31777028  .00021537  00000+0  61175-3 0  9990,2 45412  53.1562 178.3683 0006028 357.3964   2.7007 15.36138247340192
STARLINK-1309,45414,53.0601,0.0006764,15.65848193,366.23548864339773,375.3654512527428,1 45414U 20019BG  26135.27223097  .00026066  00000+0  25620-3 0  9996,2 45414  53.0601 158.8481 0006764 341.3818  18.6948 15.65848193340431
